{
  "type": "FeatureCollection",
  "features": [
    {
      "type": "Feature",
      "properties": {
        "norad_id": 40115,
        "name": "WORLDVIEW-3 (WV-3)",
        "group": "resource",
        "lat": 4.127412530886358,
        "lon": -121.47270952973535,
        "alt_km": 611.3119823512607,
        "timestamp": "2025-12-11T15:53:39.199263+00:00",
        "meta_object_name": "WORLDVIEW-3 (WV-3)",
        "meta_object_id": "2014-048A",
        "meta_epoch": "2025-12-11T05:24:21.657024",
        "meta_mean_motion": 14.85505154,
        "meta_eccentricity": 0.00046329,
        "meta_inclination": 97.8617,
        "meta_ra_of_asc_node": 57.5245,
        "meta_arg_of_pericenter": 189.864,
        "meta_mean_anomaly": 170.2485,
        "meta_ephemeris_type": 0,
        "meta_classification_type": "U",
        "meta_norad_cat_id": 40115,
        "meta_element_set_no": 999,
        "meta_rev_at_epoch": 61401,
        "meta_bstar": 0.00020745929,
        "meta_mean_motion_dot": 1.738e-05,
        "meta_mean_motion_ddot": 0,
        "tle_line1": "1 40115U 14048A   25345.22525066  .00001738  00000+0  20746-3 0  9995",
        "tle_line2": "2 40115  97.8617  57.5245 0004632 189.8640 170.2485 14.85505154614017"
      },
      "geometry": {
        "type": "Point",
        "coordinates": [
          -121.47270952973535,
          4.127412530886358
        ]
      }
    },
    {
      "type": "Feature",
      "properties": {
        "norad_id": 40118,
        "name": "GAOFEN-2",
        "group": "resource",
        "lat": 11.764065423484134,
        "lon": 43.14186328278973,
        "alt_km": 630.1917017664864,
        "timestamp": "2025-12-11T15:53:39.199274+00:00",
        "meta_object_name": "GAOFEN-2",
        "meta_object_id": "2014-049A",
        "meta_epoch": "2025-12-11T07:43:51.434112",
        "meta_mean_motion": 14.80603994,
        "meta_eccentricity": 0.00085241,
        "meta_inclination": 98.0381,
        "meta_ra_of_asc_node": 44.4876,
        "meta_arg_of_pericenter": 116.8392,
        "meta_mean_anomaly": 243.3693,
        "meta_ephemeris_type": 0,
        "meta_classification_type": "U",
        "meta_norad_cat_id": 40118,
        "meta_element_set_no": 999,
        "meta_rev_at_epoch": 61143,
        "meta_bstar": 0.00017794588,
        "meta_mean_motion_dot": 1.313e-05,
        "meta_mean_motion_ddot": 0,
        "tle_line1": "1 40118U 14049A   25345.32212308  .00001313  00000+0  17795-3 0  9991",
        "tle_line2": "2 40118  98.0381  44.4876 0008524 116.8392 243.3693 14.80603994611436"
      },
      "geometry": {
        "type": "Point",
        "coordinates": [
          43.14186328278973,
          11.764065423484134
        ]
      }
    },
    {
      "type": "Feature",
      "properties": {
        "norad_id": 40143,
        "name": "YAOGAN-21",
        "group": "resource",
        "lat": 10.853203907682405,
        "lon": -149.59427193708152,
        "alt_km": 500.1605603889011,
        "timestamp": "2025-12-11T15:53:39.199284+00:00",
        "meta_object_name": "YAOGAN-21",
        "meta_object_id": "2014-053A",
        "meta_epoch": "2025-12-11T07:16:29.929152",
        "meta_mean_motion": 15.23650793,
        "meta_eccentricity": 0.00098544,
        "meta_inclination": 97.1757,
        "meta_ra_of_asc_node": 28.6781,
        "meta_arg_of_pericenter": 46.4566,
        "meta_mean_anomaly": 313.7488,
        "meta_ephemeris_type": 0,
        "meta_classification_type": "U",
        "meta_norad_cat_id": 40143,
        "meta_element_set_no": 999,
        "meta_rev_at_epoch": 62632,
        "meta_bstar": 0.00036171857,
        "meta_mean_motion_dot": 8.617e-05,
        "meta_mean_motion_ddot": 0,
        "tle_line1": "1 40143U 14053A   25345.30312418  .00008617  00000+0  36172-3 0  9999",
        "tle_line2": "2 40143  97.1757  28.6781 0009854  46.4566 313.7488 15.23650793626323"
      },
      "geometry": {
        "type": "Point",
        "coordinates": [
          -149.59427193708152,
          10.853203907682405
        ]
      }
    },
    {
      "type": "Feature",
      "properties": {
        "norad_id": 40275,
        "name": "YAOGAN-22",
        "group": "resource",
        "lat": 79.25055618796276,
        "lon": 40.0046838852011,
        "alt_km": 1198.690356802189,
        "timestamp": "2025-12-11T15:53:39.199294+00:00",
        "meta_object_name": "YAOGAN-22",
        "meta_object_id": "2014-063A",
        "meta_epoch": "2025-12-11T06:18:45.851616",
        "meta_mean_motion": 13.15522615,
        "meta_eccentricity": 0.00059483,
        "meta_inclination": 100.742,
        "meta_ra_of_asc_node": 128.6617,
        "meta_arg_of_pericenter": 251.9201,
        "meta_mean_anomaly": 108.1262,
        "meta_ephemeris_type": 0,
        "meta_classification_type": "U",
        "meta_norad_cat_id": 40275,
        "meta_element_set_no": 999,
        "meta_rev_at_epoch": 53510,
        "meta_bstar": 7.1617417e-05,
        "meta_mean_motion_dot": -2e-07,
        "meta_mean_motion_ddot": 0,
        "tle_line1": "1 40275U 14063A   25345.26303069 -.00000020  00000+0  71617-4 0  9998",
        "tle_line2": "2 40275 100.7420 128.6617 0005948 251.9201 108.1262 13.15522615535106"
      },
      "geometry": {
        "type": "Point",
        "coordinates": [
          40.0046838852011,
          79.25055618796276
        ]
      }
    },
    {
      "type": "Feature",
      "properties": {
        "norad_id": 40298,
        "name": "ASNARO",
        "group": "resource",
        "lat": -52.40066681061119,
        "lon": -128.0345906828997,
        "alt_km": 515.6384488627973,
        "timestamp": "2025-12-11T15:53:39.199304+00:00",
        "meta_object_name": "ASNARO",
        "meta_object_id": "2014-070A",
        "meta_epoch": "2025-12-11T06:58:11.654688",
        "meta_mean_motion": 15.19446333,
        "meta_eccentricity": 0.00053905,
        "meta_inclination": 97.3648,
        "meta_ra_of_asc_node": 61.2719,
        "meta_arg_of_pericenter": 126.1491,
        "meta_mean_anomaly": 234.0243,
        "meta_ephemeris_type": 0,
        "meta_classification_type": "U",
        "meta_norad_cat_id": 40298,
        "meta_element_set_no": 999,
        "meta_rev_at_epoch": 61547,
        "meta_bstar": 0.00085455456,
        "meta_mean_motion_dot": 0.00018083,
        "meta_mean_motion_ddot": 0,
        "tle_line1": "1 40298U 14070A   25345.29041267  .00018083  00000+0  85455-3 0  9994",
        "tle_line2": "2 40298  97.3648  61.2719 0005390 126.1491 234.0243 15.19446333615479"
      },
      "geometry": {
        "type": "Point",
        "coordinates": [
          -128.0345906828997,
          -52.40066681061119
        ]
      }
    },
    {
      "type": "Feature",
      "properties": {
        "norad_id": 40310,
        "name": "YAOGAN-24",
        "group": "resource",
        "lat": 12.588410616453627,
        "lon": 114.92170669146812,
        "alt_km": 649.0576665353383,
        "timestamp": "2025-12-11T15:53:39.199315+00:00",
        "meta_object_name": "YAOGAN-24",
        "meta_object_id": "2014-072A",
        "meta_epoch": "2025-12-11T07:42:09.362016",
        "meta_mean_motion": 14.76170959,
        "meta_eccentricity": 0.00146734,
        "meta_inclination": 98.1224,
        "meta_ra_of_asc_node": 116.4063,
        "meta_arg_of_pericenter": 142.3536,
        "meta_mean_anomaly": 217.8703,
        "meta_ephemeris_type": 0,
        "meta_classification_type": "U",
        "meta_norad_cat_id": 40310,
        "meta_element_set_no": 999,
        "meta_rev_at_epoch": 59600,
        "meta_bstar": 0.0001917482,
        "meta_mean_motion_dot": 1.275e-05,
        "meta_mean_motion_ddot": 0,
        "tle_line1": "1 40310U 14072A   25345.32094169  .00001275  00000+0  19175-3 0  9995",
        "tle_line2": "2 40310  98.1224 116.4063 0014673 142.3536 217.8703 14.76170959596009"
      },
      "geometry": {
        "type": "Point",
        "coordinates": [
          114.92170669146812,
          12.588410616453627
        ]
      }
    },
    {
      "type": "Feature",
      "properties": {
        "norad_id": 40336,
        "name": "CBERS 4",
        "group": "resource",
        "lat": -81.6083025250002,
        "lon": 127.0581615042324,
        "alt_km": 781.7789776231048,
        "timestamp": "2025-12-11T15:53:39.199325+00:00",
        "meta_object_name": "CBERS 4",
        "meta_object_id": "2014-079A",
        "meta_epoch": "2025-12-11T06:16:17.576256",
        "meta_mean_motion": 14.35516712,
        "meta_eccentricity": 0.00016416,
        "meta_inclination": 98.3306,
        "meta_ra_of_asc_node": 43.3285,
        "meta_arg_of_pericenter": 114.421,
        "meta_mean_anomaly": 245.7147,
        "meta_ephemeris_type": 0,
        "meta_classification_type": "U",
        "meta_norad_cat_id": 40336,
        "meta_element_set_no": 999,
        "meta_rev_at_epoch": 57699,
        "meta_bstar": 8.0046424e-05,
        "meta_mean_motion_dot": 1.88e-06,
        "meta_mean_motion_ddot": 0,
        "tle_line1": "1 40336U 14079A   25345.26131454  .00000188  00000+0  80046-4 0  9990",
        "tle_line2": "2 40336  98.3306  43.3285 0001641 114.4210 245.7147 14.35516712576998"
      },
      "geometry": {
        "type": "Point",
        "coordinates": [
          127.0581615042324,
          -81.6083025250002
        ]
      }
    }
  ]
}